[{"OBJECT_NAME":"STARLINK-5151","OBJECT_ID":"2022-136R","EPOCH":"2026-03-09T22:37:01.667424","MEAN_MOTION":15.08833331,"ECCENTRICITY":0.00011122,"INCLINATION":53.2171,"RA_OF_ASC_NODE":342.8858,"ARG_OF_PERICENTER":86.3379,"MEAN_ANOMALY":273.774,"EPHEMERIS_TYPE":0,"CLASSIFICATION_TYPE":"U","NORAD_CAT_ID":54066,"ELEMENT_SET_NO":999,"REV_AT_EPOCH":18688,"BSTAR":5.9404375e-5,"MEAN_MOTION_DOT":6.58e-6,"MEAN_MOTION_DDOT":0},{"OBJECT_NAME":"CZ-6A DEB","OBJECT_ID":"2024-126C","EPOCH":"2026-03-09T22:45:09.534528","MEAN_MOTION":15.08339588,"ECCENTRICITY":0.00034995,"INCLINATION":97.8272,"RA_OF_ASC_NODE":88.0703,"ARG_OF_PERICENTER":249.9832,"MEAN_ANOMALY":110.1019,"EPHEMERIS_TYPE":0,"CLASSIFICATION_TYPE":"U","NORAD_CAT_ID":60213,"ELEMENT_SET_NO":999,"REV_AT_EPOCH":9177,"BSTAR":0.0010886629,"MEAN_MOTION_DOT":0.00016868,"MEAN_MOTION_DDOT":0}]
